COSMOS 2433 (720)       
1 32275C 07052A   23175.99979167  .00000000  00000-0  00000-0 0  1754
2 32275  66.0395 352.3030 0001277 179.2090  46.8474  2.13104425    17
COSMOS 2432 (719)       
1 32276C 07052B   23175.99979167  .00000000  00000-0  00000-0 0  1755
2 32276  66.0538 352.4104 0008512 340.2922 193.0484  2.13103540    16
COSMOS 2434 (721)       
1 32393C 07065A   23175.99979167  .00000000  00000-0  00000-0 0  1759
2 32393  64.3386 228.7328 0000691 121.0131 355.9584  2.13103312    15
COSMOS 2436 (723)       
1 32395C 07065C   23175.99979167  .00000000  00000-0  00000-0 0  1751
2 32395  64.3472 228.7937 0015222 353.4524 259.1023  2.13103102    12
COSMOS 2456 (730)       
1 36111C 09070A   23175.99979167 -.00000000  00000-0  00000-0 0  1750
2 36111  64.4659 108.2576 0004953 313.6640 323.5289  2.13099403    15
COSMOS 2457 (733)       
1 36112C 09070B   23175.99979167 -.00000000  00000-0  00000-0 0  1751
2 36112  64.4497 108.1246 0003520 173.6258 233.7963  2.13101480    17
COSMOS 2460 (732)       
1 36402C 10007C   23175.99979167  .00000000  00000-0  00000-0 0  1754
2 36402  65.9036 351.0306 0002497  88.6611 306.3460  2.13106542    13
COSMOS 2476 (744)       
1 37867C 11064A   23175.99979167 -.00000000  00000-0  00000-0 0  1755
2 37867  64.7474 109.7576 0022571 239.4705 306.4397  2.13101828    16
COSMOS 2477 (745)       
1 37868C 11064B   23175.99979167 -.00000000  00000-0  00000-0 0  1756
2 37868  64.7548 109.8264 0019802 240.7286 123.0904  2.13101765    13
COSMOS 2475 (743)       
1 37869C 11064C   23175.99979167 -.00000000  00000-0  00000-0 0  1757
2 37869  64.7620 109.8379 0024591 256.4390  65.7590  2.13102210    12
COSMOS 2485 (747)       
1 39155C 13019A   23175.99979167 -.00000000  00000-0  00000-0 0  1759
2 39155  64.9084 110.2660 0022879 235.4913 354.7852  2.13102053    19
COSMOS 2492 (754)       
1 39620C 14012A   23175.99979167  .00000000  00000-0  00000-0 0  1759
2 39620  65.7878 350.6592 0011229 331.5937 292.9514  2.13103485    19
COSMOS 2500 (755)       
1 40001C 14032A   23175.99979167  .00000000  00000-0  00000-0 0  1756
2 40001  65.7263 350.4921 0005958 181.0835 302.1744  2.13106190    18
COSMOS 2501 (702K)      
1 40315C 14075A   23175.99979167  .00000000  00000-0  00000-0 0  1751
2 40315  63.6425 228.1494 0019962 210.6644  81.3290  2.13101576    11
COSMOS 2514 (751)       
1 41330C 16008A   23175.99979167  .00000000  00000-0  00000-0 0  1757
2 41330  65.5240 350.0914 0009314 198.3810 108.2735  2.13102955    19
COSMOS 2522 (752)       
1 42939C 17055A   23175.99979167  .00000000  00000-0  00000-0 0  1756
2 42939  64.1028 229.0345 0009620 241.2495 186.4147  2.13102180    19
COSMOS 2527 (756)       
1 43508C 18053A   23175.99979167 -.00000000  00000-0  00000-0 0  1759
2 43508  65.0701 110.3438 0008501 238.9032 220.6397  2.13102543    13
COSMOS 2529 (757)       
1 43687C 18086A   23175.99979167  .00000000  00000-0  00000-0 0  1752
2 43687  64.3181 229.4509 0011185 261.1252 122.0316  2.13102372    16
COSMOS 2534 (758)       
1 44299C 19030A   23175.99979167  .00000000  00000-0  00000-0 0  1752
2 44299  64.3906 229.3707 0013234 280.4255 237.0455  2.13102296    10
COSMOS 2544 (759)       
1 44850C 19088A   23175.99979167 -.00000000  00000-0  00000-0 0  1759
2 44850  65.0559 110.1881 0013597 261.3698 241.3284  2.13102297    15
COSMOS 2545 (760)       
1 45358C 20018A   23175.99979167  .00000000  00000-0  00000-0 0  1757
2 45358  64.8641 350.3947 0007036 237.6957 114.0817  2.13102854    11
COSMOS 2547 (705K)      
1 46805C 20075A   23175.99979167  .00000000  00000-0  00000-0 0  1758
2 46805  64.6175 228.9055 0008447 242.3406 324.0531  2.13103298    17
COSMOS 2557 (706K)      
1 52984C 20075A   23175.99979167  .00000000  00000-0  00000-0 0  1753
2 52984  64.7779 352.5615 0010399 283.3995 158.7279  2.13102329    11
COSMOS 2559 (707K)      
1 54031C 22130A   23175.99979167  .00000000  00000-0  00000-0 0  1752
2 54031  64.7490 352.6916 0005192 210.3861 276.5380  2.13101534    17
COSMOS 2564 (761)       
1 54377C 22161A   23175.99979167  .00000000  00000-0  00000-0 0  1759
2 54377  64.7581 228.9457 0010823 224.6626 113.6131  2.13102343    14
